     3.00           N                   E                   RINEX VERSION / TYPE
BRD_USR             ESA                 20190115 061741  UTCPGM / RUN BY / DATE
 GAL   3.6500E+01  1.4844E-01  3.9673E-04  0.0000E+00       IONOSPHERIC CORR
GAUT  2.7939677238E-09-1.776356839E-15 172800 2036 GSTB   0 TIME SYSTEM CORR
GPGA -1.4551915228E-09-1.110223025E-14 172800 2036 GSTB   0 TIME SYSTEM CORR
                                                            END OF HEADER
E26 2019 01 15 03 40 00 5.018446885515E-03-4.330047431722E-11 0.000000000000E+00
     5.400000000000E+01-3.087500000000E+01 2.828332097099E-09 1.551790216531E+00
    -1.473352313042E-06 3.176387399435E-04 1.031905412674E-05 5.440609889984E+03
     1.860000000000E+05-3.725290298462E-09-9.819481137832E-01 3.725290298462E-08
     9.783462836611E-01 1.264062500000E+02-1.971893763713E+00-5.466299121871E-09
     2.350097891010E-10 5.210000000000E+02 2.036000000000E+03 0.000000000000E+00
     3.120000000000E+00 0.000000000000E+00 1.164153218269E-09 1.396983861923E-09
     1.872250000000E+05 0.000000000000E+00 0.000000000000E+00 0.000000000000E+00
E27 2019 01 15 03 40 00 5.494906217791E-04-7.673861546209E-12 0.000000000000E+00
     5.400000000000E+01 6.625000000000E+01 2.918693003850E-09-2.999739318635E+00
     3.198161721230E-06 1.708941999823E-04 4.114583134651E-06 5.440625717163E+03
     1.860000000000E+05-4.284083843231E-08-3.073455631912E+00-2.235174179077E-08
     9.896342239292E-01 2.655000000000E+02-8.129201480157E-01-5.709523538859E-09
     7.214586230761E-11 5.210000000000E+02 2.036000000000E+03 0.000000000000E+00
     3.120000000000E+00 0.000000000000E+00-2.561137080193E-09-3.026798367500E-09
     1.872250000000E+05 0.000000000000E+00 0.000000000000E+00 0.000000000000E+00
E30 2019 01 15 03 30 00 5.187615926843E-03-3.046807250939E-11 0.000000000000E+00
     5.300000000000E+01 6.325000000000E+01 2.978695503195E-09 2.536495499333E+00
     3.013759851456E-06 3.139383625239E-04 4.289671778679E-06 5.440614700317E+03
     1.854000000000E+05 1.117587089539E-08-3.067458599666E+00-3.166496753693E-08
     9.876501295808E-01 2.623750000000E+02 6.256021206451E-01-5.673807765439E-09
     4.393040130612E-11 5.210000000000E+02 2.036000000000E+03 0.000000000000E+00
     3.120000000000E+00 0.000000000000E+00-3.026798367500E-09-3.725290298462E-09
     1.872250000000E+05 0.000000000000E+00 0.000000000000E+00 0.000000000000E+00
E31 2019 01 15 03 40 00 9.323462727480E-04-9.762857189344E-12 0.000000000000E+00
     5.400000000000E+01 8.112500000000E+01 2.978695503195E-09 1.677440323505E+00
     3.788620233536E-06 2.144253812730E-04 4.285946488380E-06 5.440622812271E+03
     1.860000000000E+05-4.656612873077E-08-3.073503469333E+00 1.862645149231E-09
     9.896369932331E-01 2.633750000000E+02-1.563071273770E+00-5.687022601604E-09
     8.464638300447E-11 5.210000000000E+02 2.036000000000E+03 0.000000000000E+00
     3.120000000000E+00 0.000000000000E+00-2.328306436539E-10-2.328306436539E-10
     1.872250000000E+05 0.000000000000E+00 0.000000000000E+00 0.000000000000E+00
E33 2019 01 15 03 40 00 8.479207754135E-04 4.263256414561E-14 0.000000000000E+00
     5.400000000000E+01-4.859375000000E+01 2.695469419978E-09 1.899952654711E-01
    -2.171844244003E-06 3.743872512132E-04 1.010857522488E-05 5.440604793549E+03
     1.860000000000E+05 7.450580596924E-09-9.908802117381E-01 6.332993507385E-08
     9.852251994984E-01 1.359687500000E+02-1.401485839362E+00-5.434154925793E-09
     2.582250418238E-10 5.210000000000E+02 2.036000000000E+03 0.000000000000E+00
     3.120000000000E+00 4.550000000000E+02-8.149072527885E-09-9.313225746155E-09
     1.872250000000E+05 0.000000000000E+00 0.000000000000E+00 0.000000000000E+00
E36 2019 01 15 03 30 00 7.595285424031E-04-4.476419235289E-12 0.000000000000E+00
     5.300000000000E+01-3.050000000000E+01 2.665825328040E-09-2.123529195915E+00
    -1.439824700356E-06 3.368934849277E-04 8.365139365196E-06 5.440605056763E+03
     1.854000000000E+05-3.166496753693E-08-9.908501765670E-01-2.980232238770E-08
     9.852342242401E-01 1.723750000000E+02-1.516903818916E+00-5.402725045184E-09
     1.821504444400E-10 5.210000000000E+02 2.036000000000E+03 0.000000000000E+00
     3.120000000000E+00 4.550000000000E+02 9.313225746155E-10 1.164153218269E-09
     1.872250000000E+05 0.000000000000E+00 0.000000000000E+00 0.000000000000E+00
E04 2019 01 15 03 40 00-2.002823166549E-04-7.901235221652E-12 0.000000000000E+00
     5.400000000000E+01-5.865625000000E+01 3.385855320179E-09 4.258842723608E-02
    -2.754852175713E-06 7.261522114277E-05 8.823350071907E-06 5.440614948273E+03
     1.860000000000E+05 8.568167686462E-08 1.119811193385E+00-7.636845111847E-08
     9.524725059373E-01 1.496875000000E+02 2.148111660239E+00-5.707380592453E-09
    -3.571577341961E-10 2.580000000000E+02 2.036000000000E+03 0.000000000000E+00
     3.120000000000E+00 0.000000000000E+00-7.916241884232E-09 0.000000000000E+00
     1.872500000000E+05 0.000000000000E+00 0.000000000000E+00 0.000000000000E+00
E02 2019 01 15 03 50 00 4.338106373325E-05 1.577404873387E-12 0.000000000000E+00
     5.500000000000E+01 7.109375000000E+01 2.909764060495E-09-2.063699989457E+00
     3.151595592499E-06 2.539282431826E-04 4.481524229050E-06 5.440620435715E+03
     1.866000000000E+05 4.470348358154E-08-3.070898455498E+00-2.607703208923E-08
     9.901062666316E-01 2.588437500000E+02-1.228476621039E-01-5.672021976768E-09
     4.535903224290E-11 5.210000000000E+02 2.036000000000E+03 0.000000000000E+00
     3.120000000000E+00 0.000000000000E+00-6.286427378654E-09-7.683411240578E-09
     1.872850000000E+05 0.000000000000E+00 0.000000000000E+00 0.000000000000E+00
E04 2019 01 15 03 50 00-2.002876717597E-04-7.901235221652E-12 0.000000000000E+00
     5.500000000000E+01-5.781250000000E+01 3.396927209939E-09 1.176831107054E-01
    -2.726912498474E-06 7.250602357090E-05 8.838251233101E-06 5.440614706039E+03
     1.866000000000E+05 8.754432201385E-08 1.119807838914E+00-6.146728992462E-08
     9.524722587041E-01 1.492812500000E+02 2.147402333687E+00-5.717381009011E-09
    -3.618007847406E-10 5.210000000000E+02 2.036000000000E+03 0.000000000000E+00
     3.120000000000E+00 0.000000000000E+00-7.916241884232E-09-8.847564458847E-09
     1.872850000000E+05 0.000000000000E+00 0.000000000000E+00 0.000000000000E+00
E05 2019 01 15 03 50 00 1.248621265404E-04-6.536993168993E-12 0.000000000000E+00
     5.500000000000E+01-5.037500000000E+01 3.299065990769E-09-9.444758402269E-01
    -2.343207597733E-06 1.317380229011E-04 8.795410394669E-06 5.440614982605E+03
     1.866000000000E+05-5.215406417847E-08 1.119738739442E+00 6.332993507385E-08
     9.524422557172E-01 1.486562500000E+02 1.636332259647E+00-5.622734209449E-09
    -1.832219176426E-10 5.210000000000E+02 2.036000000000E+03 0.000000000000E+00
     3.120000000000E+00 0.000000000000E+00-1.396983861923E-09-1.396983861923E-09
     1.872850000000E+05 0.000000000000E+00 0.000000000000E+00 0.000000000000E+00
E09 2019 01 15 03 50 00 6.557908724062E-03-1.135447291745E-11 0.000000000000E+00
     5.500000000000E+01-5.646875000000E+01 3.215491080967E-09 1.398860278843E+00
    -2.562999725342E-06 2.379526849836E-04 8.676201105118E-06 5.440613626480E+03
     1.866000000000E+05-9.499490261078E-08 1.111153633952E+00-1.210719347000E-07
     9.584460788292E-01 1.560000000000E+02 7.659303488734E-02-5.547731085268E-09
    -2.942979729776E-10 5.210000000000E+02 2.036000000000E+03 0.000000000000E+00
     3.120000000000E+00 0.000000000000E+00-3.259629011154E-09-3.958120942116E-09
     1.872850000000E+05 0.000000000000E+00 0.000000000000E+00 0.000000000000E+00
E12 2019 01 15 03 50 00 5.945171520580E-03 8.432721188001E-11 0.000000000000E+00
     5.500000000000E+01-4.350000000000E+01 2.826903466162E-09-1.069497326914E+00
    -1.870095729828E-06 4.063919186592E-04 9.441748261452E-06 5.440607143402E+03
     1.866000000000E+05 1.061707735062E-07-9.855808246431E-01 0.000000000000E+00
     9.820014664056E-01 1.478750000000E+02-8.386480918250E-01-5.492728794202E-09
     2.110802209099E-10 5.210000000000E+02 2.036000000000E+03 0.000000000000E+00
     3.120000000000E+00 0.000000000000E+00-1.559965312481E-08-1.606531441212E-08
     1.872850000000E+05 0.000000000000E+00 0.000000000000E+00 0.000000000000E+00
E15 2019 01 15 03 50 00 9.229325223714E-04-1.008970684779E-12 0.000000000000E+00
     5.500000000000E+01-2.331250000000E+01 2.791902008211E-09 2.791165673814E+00
    -9.629875421524E-07 3.929713275284E-04 8.832663297653E-06 5.440600296021E+03
     1.866000000000E+05 3.725290298462E-09-9.908584552204E-01 1.490116119385E-08
     9.851877327035E-01 1.613437500000E+02-1.572470443431E+00-5.468799226010E-09
     1.846505485794E-10 5.210000000000E+02 2.036000000000E+03 0.000000000000E+00
     3.120000000000E+00 4.550000000000E+02 1.629814505577E-09 1.396983861923E-09
     1.872850000000E+05 0.000000000000E+00 0.000000000000E+00 0.000000000000E+00
E18 2019 01 15 03 50 00 5.605430691503E-03-2.847855284926E-11 0.000000000000E+00
     5.500000000000E+01-1.409062500000E+02 4.220175787261E-09 3.085100297439E+00
    -6.200745701790E-06 1.662982295966E-01 6.495043635368E-06 5.289398895264E+03
     1.866000000000E+05 2.684071660042E-06-1.570795511950E+00-5.587935447693E-07
     8.818465544372E-01 1.333125000000E+02 1.442889134718E+00-5.737381842126E-09
     2.857261873569E-12 5.210000000000E+02 2.036000000000E+03 0.000000000000E+00
     3.120000000000E+00 4.550000000000E+02 1.420266926289E-08 1.583248376846E-08
     1.872850000000E+05 0.000000000000E+00 0.000000000000E+00 0.000000000000E+00
